<?xml version="1.0" encoding="UTF-8"?>
<osm version="0.6" generator="sumo2lanelet2-converter">
  <node id="1" version="1" lat="-0.0015889" lon="-0.0023937"/>
  <node id="2" version="1" lat="0.0003037" lon="0.0017939"/>
  <node id="3" version="1" lat="-0.0015871" lon="-0.0015990"/>
  <node id="4" version="1" lat="0.0009475" lon="0.0029329"/>
  <node id="5" version="1" lat="0.0009218" lon="-0.0015498"/>
  <node id="6" version="1" lat="-0.0006264" lon="0.0017131"/>
  <node id="7" version="1" lat="0.0009099" lon="0.0007881"/>
  <node id="8" version="1" lat="-0.0015850" lon="0.0007937"/>
  <node id="9" version="1" lat="-0.0002880" lon="0.0028674"/>
  <node id="10" version="1" lat="0.0009161" lon="-0.0024521"/>
  <node id="11" version="1" lat="-0.0006191" lon="0.0007909"/>
  <node id="12" version="1" lat="-0.0015868" lon="0.0002570"/>
  <node id="13" version="1" lat="-0.0006148" lon="0.0002523"/>
  <node id="14" version="1" lat="0.0009121" lon="0.0002468"/>
  <node id="15" version="1" lat="-0.0016187" lon="0.0029280"/>
  <node id="16" version="1" lat="-0.0006004" lon="-0.0015066"/>
  <node id="17" version="1" lat="-0.0015816" lon="0.0017085"/>
  <node id="18" version="1" lat="-0.0006347" lon="0.0028981"/>
  <node id="19" version="1" lat="0.0009073" lon="0.0013389"/>
  <node id="20" version="1" lat="0.0003050" lon="0.0017626"/>
  <node id="21" version="1" lat="0.0003455" lon="0.0017068"/>
  <node id="22" version="1" lat="-0.0016149" lon="-0.0015496"/>
  <node id="23" version="1" lat="-0.0016114" lon="0.0008399"/>
  <node id="24" version="1" lat="-0.0002677" lon="0.0029146"/>
  <node id="25" version="1" lat="-0.0005812" lon="0.0007248"/>
  <node id="26" version="1" lat="0.0009470" lon="0.0001998"/>
  <node id="27" version="1" lat="-0.0006330" lon="-0.0015882"/>
  <node id="28" version="1" lat="-0.0016082" lon="0.0017543"/>
  <node id="29" version="1" lat="-0.0015048" lon="0.0017399"/>
  <node id="30" version="1" lat="-0.0007215" lon="0.0017446"/>
  <way id="1" version="1">
    <nd ref="29"/>
    <nd ref="30"/>
    <tag k="type" v="line_thin"/>
    <tag k="subtype" v="dashed"/>
  </way>
  <relation id="1" version="1">
    <member type="way" ref="1" role="centerline"/>
    <tag k="type" v="lanelet"/>
    <tag k="subtype" v="road"/>
    <tag k="location" v="urban"/>
    <tag k="one_way" v="yes"/>
    <tag k="lane_id" v="-0_0"/>
    <tag k="edge_id" v="-0"/>
  </relation>
  <node id="31" version="1" lat="-0.0015046" lon="0.0016757"/>
  <node id="32" version="1" lat="-0.0007213" lon="0.0016805"/>
  <way id="2" version="1">
    <nd ref="31"/>
    <nd ref="32"/>
    <tag k="type" v="line_thin"/>
    <tag k="subtype" v="dashed"/>
  </way>
  <relation id="2" version="1">
    <member type="way" ref="2" role="centerline"/>
    <tag k="type" v="lanelet"/>
    <tag k="subtype" v="road"/>
    <tag k="location" v="urban"/>
    <tag k="one_way" v="yes"/>
    <tag k="lane_id" v="-0_1"/>
    <tag k="edge_id" v="-0"/>
  </relation>
  <node id="33" version="1" lat="-0.0005315" lon="0.0017458"/>
  <node id="34" version="1" lat="-0.0000296" lon="0.0017489"/>
  <node id="35" version="1" lat="0.0001771" lon="0.0017506"/>
  <way id="3" version="1">
    <nd ref="33"/>
    <nd ref="34"/>
    <nd ref="35"/>
    <tag k="type" v="line_thin"/>
    <tag k="subtype" v="dashed"/>
  </way>
  <relation id="3" version="1">
    <member type="way" ref="3" role="centerline"/>
    <tag k="type" v="lanelet"/>
    <tag k="subtype" v="road"/>
    <tag k="location" v="urban"/>
    <tag k="one_way" v="yes"/>
    <tag k="lane_id" v="-1_0"/>
    <tag k="edge_id" v="-1"/>
  </relation>
  <node id="36" version="1" lat="-0.0005314" lon="0.0016816"/>
  <node id="37" version="1" lat="-0.0000294" lon="0.0016847"/>
  <node id="38" version="1" lat="0.0001774" lon="0.0016864"/>
  <way id="4" version="1">
    <nd ref="36"/>
    <nd ref="37"/>
    <nd ref="38"/>
    <tag k="type" v="line_thin"/>
    <tag k="subtype" v="dashed"/>
  </way>
  <relation id="4" version="1">
    <member type="way" ref="4" role="centerline"/>
    <tag k="type" v="lanelet"/>
    <tag k="subtype" v="road"/>
    <tag k="location" v="urban"/>
    <tag k="one_way" v="yes"/>
    <tag k="lane_id" v="-1_1"/>
    <tag k="edge_id" v="-1"/>
  </relation>
  <node id="39" version="1" lat="0.0007666" lon="-0.0025671"/>
  <node id="40" version="1" lat="0.0007496" lon="-0.0025608"/>
  <node id="41" version="1" lat="0.0007328" lon="-0.0025548"/>
  <node id="42" version="1" lat="0.0007159" lon="-0.0025488"/>
  <node id="43" version="1" lat="0.0006990" lon="-0.0025430"/>
  <node id="44" version="1" lat="0.0006821" lon="-0.0025373"/>
  <node id="45" version="1" lat="0.0006652" lon="-0.0025318"/>
  <node id="46" version="1" lat="0.0006483" lon="-0.0025264"/>
  <node id="47" version="1" lat="0.0006313" lon="-0.0025212"/>
  <node id="48" version="1" lat="0.0006144" lon="-0.0025160"/>
  <node id="49" version="1" lat="0.0005974" lon="-0.0025110"/>
  <node id="50" version="1" lat="0.0005803" lon="-0.0025062"/>
  <node id="51" version="1" lat="0.0005633" lon="-0.0025014"/>
  <node id="52" version="1" lat="0.0005463" lon="-0.0024969"/>
  <node id="53" version="1" lat="0.0005292" lon="-0.0024924"/>
  <node id="54" version="1" lat="0.0005121" lon="-0.0024881"/>
  <node id="55" version="1" lat="0.0004951" lon="-0.0024838"/>
  <node id="56" version="1" lat="0.0004779" lon="-0.0024799"/>
  <node id="57" version="1" lat="0.0004607" lon="-0.0024759"/>
  <node id="58" version="1" lat="0.0004437" lon="-0.0024722"/>
  <node id="59" version="1" lat="0.0004265" lon="-0.0024684"/>
  <node id="60" version="1" lat="0.0004093" lon="-0.0024650"/>
  <node id="61" version="1" lat="0.0003921" lon="-0.0024615"/>
  <node id="62" version="1" lat="0.0003750" lon="-0.0024583"/>
  <node id="63" version="1" lat="0.0003577" lon="-0.0024552"/>
  <node id="64" version="1" lat="0.0003405" lon="-0.0024523"/>
  <node id="65" version="1" lat="0.0003232" lon="-0.0024493"/>
  <node id="66" version="1" lat="0.0003060" lon="-0.0024466"/>
  <node id="67" version="1" lat="0.0002887" lon="-0.0024440"/>
  <node id="68" version="1" lat="0.0002715" lon="-0.0024416"/>
  <node id="69" version="1" lat="0.0002542" lon="-0.0024393"/>
  <node id="70" version="1" lat="0.0002369" lon="-0.0024371"/>
  <node id="71" version="1" lat="0.0002196" lon="-0.0024351"/>
  <node id="72" version="1" lat="0.0002023" lon="-0.0024333"/>
  <node id="73" version="1" lat="0.0001851" lon="-0.0024315"/>
  <node id="74" version="1" lat="0.0001677" lon="-0.0024298"/>
  <node id="75" version="1" lat="0.0001504" lon="-0.0024284"/>
  <node id="76" version="1" lat="0.0001330" lon="-0.0024270"/>
  <node id="77" version="1" lat="0.0001157" lon="-0.0024258"/>
  <node id="78" version="1" lat="0.0000985" lon="-0.0024247"/>
  <node id="79" version="1" lat="0.0000811" lon="-0.0024238"/>
  <node id="80" version="1" lat="0.0000638" lon="-0.0024230"/>
  <node id="81" version="1" lat="0.0000464" lon="-0.0024222"/>
  <node id="82" version="1" lat="0.0000290" lon="-0.0024217"/>
  <node id="83" version="1" lat="0.0000117" lon="-0.0024213"/>
  <node id="84" version="1" lat="-0.0000057" lon="-0.0024211"/>
  <node id="85" version="1" lat="-0.0000230" lon="-0.0024209"/>
  <node id="86" version="1" lat="-0.0000403" lon="-0.0024209"/>
  <node id="87" version="1" lat="-0.0000577" lon="-0.0024211"/>
  <node id="88" version="1" lat="-0.0000750" lon="-0.0024213"/>
  <node id="89" version="1" lat="-0.0000923" lon="-0.0024218"/>
  <node id="90" version="1" lat="-0.0001098" lon="-0.0024224"/>
  <node id="91" version="1" lat="-0.0001271" lon="-0.0024230"/>
  <node id="92" version="1" lat="-0.0001444" lon="-0.0024239"/>
  <node id="93" version="1" lat="-0.0001618" lon="-0.0024248"/>
  <node id="94" version="1" lat="-0.0001792" lon="-0.0024260"/>
  <node id="95" version="1" lat="-0.0001878" lon="-0.0024265"/>
  <node id="96" version="1" lat="-0.0014680" lon="-0.0025176"/>
  <way id="5" version="1">
    <nd ref="39"/>
    <nd ref="40"/>
    <nd ref="41"/>
    <nd ref="42"/>
    <nd ref="43"/>
    <nd ref="44"/>
    <nd ref="45"/>
    <nd ref="46"/>
    <nd ref="47"/>
    <nd ref="48"/>
    <nd ref="49"/>
    <nd ref="50"/>
    <nd ref="51"/>
    <nd ref="52"/>
    <nd ref="53"/>
    <nd ref="54"/>
    <nd ref="55"/>
    <nd ref="56"/>
    <nd ref="57"/>
    <nd ref="58"/>
    <nd ref="59"/>
    <nd ref="60"/>
    <nd ref="61"/>
    <nd ref="62"/>
    <nd ref="63"/>
    <nd ref="64"/>
    <nd ref="65"/>
    <nd ref="66"/>
    <nd ref="67"/>
    <nd ref="68"/>
    <nd ref="69"/>
    <nd ref="70"/>
    <nd ref="71"/>
    <nd ref="72"/>
    <nd ref="73"/>
    <nd ref="74"/>
    <nd ref="75"/>
    <nd ref="76"/>
    <nd ref="77"/>
    <nd ref="78"/>
    <nd ref="79"/>
    <nd ref="80"/>
    <nd ref="81"/>
    <nd ref="82"/>
    <nd ref="83"/>
    <nd ref="84"/>
    <nd ref="85"/>
    <nd ref="86"/>
    <nd ref="87"/>
    <nd ref="88"/>
    <nd ref="89"/>
    <nd ref="90"/>
    <nd ref="91"/>
    <nd ref="92"/>
    <nd ref="93"/>
    <nd ref="94"/>
    <nd ref="95"/>
    <nd ref="96"/>
    <tag k="type" v="line_thin"/>
    <tag k="subtype" v="dashed"/>
  </way>
  <relation id="5" version="1">
    <member type="way" ref="5" role="centerline"/>
    <tag k="type" v="lanelet"/>
    <tag k="subtype" v="road"/>
    <tag k="location" v="urban"/>
    <tag k="one_way" v="yes"/>
    <tag k="lane_id" v="-13_0"/>
    <tag k="edge_id" v="-13"/>
  </relation>
  <node id="97" version="1" lat="0.0007778" lon="-0.0025050"/>
  <node id="98" version="1" lat="0.0007607" lon="-0.0024986"/>
  <node id="99" version="1" lat="0.0007436" lon="-0.0024926"/>
  <node id="100" version="1" lat="0.0007265" lon="-0.0024865"/>
  <node id="101" version="1" lat="0.0007094" lon="-0.0024806"/>
  <node id="102" version="1" lat="0.0006922" lon="-0.0024748"/>
  <node id="103" version="1" lat="0.0006751" lon="-0.0024692"/>
  <node id="104" version="1" lat="0.0006579" lon="-0.0024638"/>
  <node id="105" version="1" lat="0.0006408" lon="-0.0024584"/>
  <node id="106" version="1" lat="0.0006235" lon="-0.0024533"/>
  <node id="107" version="1" lat="0.0006063" lon="-0.0024482"/>
  <node id="108" version="1" lat="0.0005890" lon="-0.0024433"/>
  <node id="109" version="1" lat="0.0005718" lon="-0.0024384"/>
  <node id="110" version="1" lat="0.0005544" lon="-0.0024338"/>
  <node id="111" version="1" lat="0.0005372" lon="-0.0024293"/>
  <node id="112" version="1" lat="0.0005199" lon="-0.0024249"/>
  <node id="113" version="1" lat="0.0005025" lon="-0.0024206"/>
  <node id="114" version="1" lat="0.0004852" lon="-0.0024165"/>
  <node id="115" version="1" lat="0.0004678" lon="-0.0024125"/>
  <node id="116" version="1" lat="0.0004504" lon="-0.0024086"/>
  <node id="117" version="1" lat="0.0004330" lon="-0.0024050"/>
  <node id="118" version="1" lat="0.0004156" lon="-0.0024014"/>
  <node id="119" version="1" lat="0.0003981" lon="-0.0023980"/>
  <node id="120" version="1" lat="0.0003807" lon="-0.0023946"/>
  <node id="121" version="1" lat="0.0003632" lon="-0.0023916"/>
  <node id="122" version="1" lat="0.0003458" lon="-0.0023885"/>
  <node id="123" version="1" lat="0.0003282" lon="-0.0023857"/>
  <node id="124" version="1" lat="0.0003108" lon="-0.0023828"/>
  <node id="125" version="1" lat="0.0002933" lon="-0.0023803"/>
  <node id="126" version="1" lat="0.0002758" lon="-0.0023777"/>
  <node id="127" version="1" lat="0.0002583" lon="-0.0023754"/>
  <node id="128" version="1" lat="0.0002407" lon="-0.0023732"/>
  <node id="129" version="1" lat="0.0002232" lon="-0.0023712"/>
  <node id="130" version="1" lat="0.0002056" lon="-0.0023692"/>
  <node id="131" version="1" lat="0.0001881" lon="-0.0023674"/>
  <node id="132" version="1" lat="0.0001705" lon="-0.0023658"/>
  <node id="133" version="1" lat="0.0001530" lon="-0.0023644"/>
  <node id="134" version="1" lat="0.0001354" lon="-0.0023629"/>
  <node id="135" version="1" lat="0.0001179" lon="-0.0023617"/>
  <node id="136" version="1" lat="0.0001003" lon="-0.0023606"/>
  <node id="137" version="1" lat="0.0000826" lon="-0.0023596"/>
  <node id="138" version="1" lat="0.0000650" lon="-0.0023588"/>
  <node id="139" version="1" lat="0.0000475" lon="-0.0023581"/>
  <node id="140" version="1" lat="0.0000299" lon="-0.0023576"/>
  <node id="141" version="1" lat="0.0000123" lon="-0.0023572"/>
  <node id="142" version="1" lat="-0.0000053" lon="-0.0023569"/>
  <node id="143" version="1" lat="-0.0000229" lon="-0.0023568"/>
  <node id="144" version="1" lat="-0.0000405" lon="-0.0023568"/>
  <node id="145" version="1" lat="-0.0000581" lon="-0.0023569"/>
  <node id="146" version="1" lat="-0.0000756" lon="-0.0023572"/>
  <node id="147" version="1" lat="-0.0000932" lon="-0.0023577"/>
  <node id="148" version="1" lat="-0.0001109" lon="-0.0023582"/>
  <node id="149" version="1" lat="-0.0001285" lon="-0.0023588"/>
  <node id="150" version="1" lat="-0.0001461" lon="-0.0023597"/>
  <node id="151" version="1" lat="-0.0001636" lon="-0.0023608"/>
  <node id="152" version="1" lat="-0.0001813" lon="-0.0023618"/>
  <node id="153" version="1" lat="-0.0001900" lon="-0.0023624"/>
  <node id="154" version="1" lat="-0.0014703" lon="-0.0024534"/>
  <way id="6" version="1">
    <nd ref="97"/>
    <nd ref="98"/>
    <nd ref="99"/>
    <nd ref="100"/>
    <nd ref="101"/>
    <nd ref="102"/>
    <nd ref="103"/>
    <nd ref="104"/>
    <nd ref="105"/>
    <nd ref="106"/>
    <nd ref="107"/>
    <nd ref="108"/>
    <nd ref="109"/>
    <nd ref="110"/>
    <nd ref="111"/>
    <nd ref="112"/>
    <nd ref="113"/>
    <nd ref="114"/>
    <nd ref="115"/>
    <nd ref="116"/>
    <nd ref="117"/>
    <nd ref="118"/>
    <nd ref="119"/>
    <nd ref="120"/>
    <nd ref="121"/>
    <nd ref="122"/>
    <nd ref="123"/>
    <nd ref="124"/>
    <nd ref="125"/>
    <nd ref="126"/>
    <nd ref="127"/>
    <nd ref="128"/>
    <nd ref="129"/>
    <nd ref="130"/>
    <nd ref="131"/>
    <nd ref="132"/>
    <nd ref="133"/>
    <nd ref="134"/>
    <nd ref="135"/>
    <nd ref="136"/>
    <nd ref="137"/>
    <nd ref="138"/>
    <nd ref="139"/>
    <nd ref="140"/>
    <nd ref="141"/>
    <nd ref="142"/>
    <nd ref="143"/>
    <nd ref="144"/>
    <nd ref="145"/>
    <nd ref="146"/>
    <nd ref="147"/>
    <nd ref="148"/>
    <nd ref="149"/>
    <nd ref="150"/>
    <nd ref="151"/>
    <nd ref="152"/>
    <nd ref="153"/>
    <nd ref="154"/>
    <tag k="type" v="line_thin"/>
    <tag k="subtype" v="dashed"/>
  </way>
  <relation id="6" version="1">
    <member type="way" ref="6" role="centerline"/>
    <tag k="type" v="lanelet"/>
    <tag k="subtype" v="road"/>
    <tag k="location" v="urban"/>
    <tag k="one_way" v="yes"/>
    <tag k="lane_id" v="-13_1"/>
    <tag k="edge_id" v="-13"/>
  </relation>
  <node id="155" version="1" lat="-0.0015083" lon="0.0008252"/>
  <node id="156" version="1" lat="-0.0007146" lon="0.0008231"/>
  <way id="7" version="1">
    <nd ref="155"/>
    <nd ref="156"/>
    <tag k="type" v="line_thin"/>
    <tag k="subtype" v="dashed"/>
  </way>
  <relation id="7" version="1">
    <member type="way" ref="7" role="centerline"/>
    <tag k="type" v="lanelet"/>
    <tag k="subtype" v="road"/>
    <tag k="location" v="urban"/>
    <tag k="one_way" v="yes"/>
    <tag k="lane_id" v="-16_0"/>
    <tag k="edge_id" v="-16"/>
  </relation>
  <node id="157" version="1" lat="-0.0015084" lon="0.0007610"/>
  <node id="158" version="1" lat="-0.0007147" lon="0.0007589"/>
  <way id="8" version="1">
    <nd ref="157"/>
    <nd ref="158"/>
    <tag k="type" v="line_thin"/>
    <tag k="subtype" v="dashed"/>
  </way>
  <relation id="8" version="1">
    <member type="way" ref="8" role="centerline"/>
    <tag k="type" v="lanelet"/>
    <tag k="subtype" v="road"/>
    <tag k="location" v="urban"/>
    <tag k="one_way" v="yes"/>
    <tag k="lane_id" v="-16_1"/>
    <tag k="edge_id" v="-16"/>
  </relation>
  <node id="159" version="1" lat="-0.0005234" lon="0.0008227"/>
  <node id="160" version="1" lat="0.0008402" lon="0.0008193"/>
  <way id="9" version="1">
    <nd ref="159"/>
    <nd ref="160"/>
    <tag k="type" v="line_thin"/>
    <tag k="subtype" v="dashed"/>
  </way>
  <relation id="9" version="1">
    <member type="way" ref="9" role="centerline"/>
    <tag k="type" v="lanelet"/>
    <tag k="subtype" v="road"/>
    <tag k="location" v="urban"/>
    <tag k="one_way" v="yes"/>
    <tag k="lane_id" v="-17_0"/>
    <tag k="edge_id" v="-17"/>
  </relation>
  <node id="161" version="1" lat="-0.0005235" lon="0.0007586"/>
  <node id="162" version="1" lat="0.0008401" lon="0.0007551"/>
  <way id="10" version="1">
    <nd ref="161"/>
    <nd ref="162"/>
    <tag k="type" v="line_thin"/>
    <tag k="subtype" v="dashed"/>
  </way>
  <relation id="10" version="1">
    <member type="way" ref="10" role="centerline"/>
    <tag k="type" v="lanelet"/>
    <tag k="subtype" v="road"/>
    <tag k="location" v="urban"/>
    <tag k="one_way" v="yes"/>
    <tag k="lane_id" v="-17_1"/>
    <tag k="edge_id" v="-17"/>
  </relation>
  <node id="163" version="1" lat="0.0010374" lon="0.0027680"/>
  <node id="164" version="1" lat="0.0010440" lon="0.0014749"/>
  <way id="11" version="1">
    <nd ref="163"/>
    <nd ref="164"/>
    <tag k="type" v="line_thin"/>
    <tag k="subtype" v="dashed"/>
  </way>
  <relation id="11" version="1">
    <member type="way" ref="11" role="centerline"/>
    <tag k="type" v="lanelet"/>
    <tag k="subtype" v="road"/>
    <tag k="location" v="urban"/>
    <tag k="one_way" v="yes"/>
    <tag k="lane_id" v="-18_0"/>
    <tag k="edge_id" v="-18"/>
  </relation>
  <node id="165" version="1" lat="0.0009925" lon="0.0027674"/>
  <node id="166" version="1" lat="0.0009991" lon="0.0014744"/>
  <way id="12" version="1">
    <nd ref="165"/>
    <nd ref="166"/>
    <tag k="type" v="line_thin"/>
    <tag k="subtype" v="dashed"/>
  </way>
  <relation id="12" version="1">
    <member type="way" ref="12" role="centerline"/>
    <tag k="type" v="lanelet"/>
    <tag k="subtype" v="road"/>
    <tag k="location" v="urban"/>
    <tag k="one_way" v="yes"/>
    <tag k="lane_id" v="-18_1"/>
    <tag k="edge_id" v="-18"/>
  </relation>
  <node id="167" version="1" lat="0.0010455" lon="0.0012054"/>
  <node id="168" version="1" lat="0.0010469" lon="0.0009241"/>
  <way id="13" version="1">
    <nd ref="167"/>
    <nd ref="168"/>
    <tag k="type" v="line_thin"/>
    <tag k="subtype" v="dashed"/>
  </way>
  <relation id="13" version="1">
    <member type="way" ref="13" role="centerline"/>
    <tag k="type" v="lanelet"/>
    <tag k="subtype" v="road"/>
    <tag k="location" v="urban"/>
    <tag k="one_way" v="yes"/>
    <tag k="lane_id" v="-19_0"/>
    <tag k="edge_id" v="-19"/>
  </relation>
  <node id="169" version="1" lat="0.0010005" lon="0.0012049"/>
  <node id="170" version="1" lat="0.0010020" lon="0.0009236"/>
  <way id="14" version="1">
    <nd ref="169"/>
    <nd ref="170"/>
    <tag k="type" v="line_thin"/>
    <tag k="subtype" v="dashed"/>
  </way>
  <relation id="14" version="1">
    <member type="way" ref="14" role="centerline"/>
    <tag k="type" v="lanelet"/>
    <tag k="subtype" v="road"/>
    <tag k="location" v="urban"/>
    <tag k="one_way" v="yes"/>
    <tag k="lane_id" v="-19_1"/>
    <tag k="edge_id" v="-19"/>
  </relation>
  <node id="171" version="1" lat="-0.0016842" lon="-0.0022471"/>
  <node id="172" version="1" lat="-0.0017068" lon="-0.0018580"/>
  <node id="173" version="1" lat="-0.0017082" lon="-0.0018322"/>
  <node id="174" version="1" lat="-0.0017097" lon="-0.0018062"/>
  <node id="175" version="1" lat="-0.0017109" lon="-0.0017803"/>
  <node id="176" version="1" lat="-0.0017122" lon="-0.0017545"/>
  <node id="177" version="1" lat="-0.0017126" lon="-0.0017452"/>
  <way id="15" version="1">
    <nd ref="171"/>
    <nd ref="172"/>
    <nd ref="173"/>
    <nd ref="174"/>
    <nd ref="175"/>
    <nd ref="176"/>
    <nd ref="177"/>
    <tag k="type" v="line_thin"/>
    <tag k="subtype" v="dashed"/>
  </way>
  <relation id="15" version="1">
    <member type="way" ref="15" role="centerline"/>
    <tag k="type" v="lanelet"/>
    <tag k="subtype" v="road"/>
    <tag k="location" v="urban"/>
    <tag k="one_way" v="yes"/>
    <tag k="lane_id" v="-2_0"/>
    <tag k="edge_id" v="-2"/>
  </relation>
  <node id="178" version="1" lat="-0.0016395" lon="-0.0022418"/>
  <node id="179" version="1" lat="-0.0016620" lon="-0.0018527"/>
  <node id="180" version="1" lat="-0.0016635" lon="-0.0018270"/>
  <node id="181" version="1" lat="-0.0016648" lon="-0.0018014"/>
  <node id="182" version="1" lat="-0.0016661" lon="-0.0017758"/>
  <node id="183" version="1" lat="-0.0016674" lon="-0.0017502"/>
  <node id="184" version="1" lat="-0.0016678" lon="-0.0017409"/>
  <way id="16" version="1">
    <nd ref="178"/>
    <nd ref="179"/>
    <nd ref="180"/>
    <nd ref="181"/>
    <nd ref="182"/>
    <nd ref="183"/>
    <nd ref="184"/>
    <tag k="type" v="line_thin"/>
    <tag k="subtype" v="dashed"/>
  </way>
  <relation id="16" version="1">
    <member type="way" ref="16" role="centerline"/>
    <tag k="type" v="lanelet"/>
    <tag k="subtype" v="road"/>
    <tag k="location" v="urban"/>
    <tag k="one_way" v="yes"/>
    <tag k="lane_id" v="-2_1"/>
    <tag k="edge_id" v="-2"/>
  </relation>
  <node id="185" version="1" lat="0.0010483" lon="0.0006546"/>
  <node id="186" version="1" lat="0.0010497" lon="0.0003828"/>
  <way id="17" version="1">
    <nd ref="185"/>
    <nd ref="186"/>
    <tag k="type" v="line_thin"/>
    <tag k="subtype" v="dashed"/>
  </way>
  <relation id="17" version="1">
    <member type="way" ref="17" role="centerline"/>
    <tag k="type" v="lanelet"/>
    <tag k="subtype" v="road"/>
    <tag k="location" v="urban"/>
    <tag k="one_way" v="yes"/>
    <tag k="lane_id" v="-20_0"/>
    <tag k="edge_id" v="-20"/>
  </relation>
  <node id="187" version="1" lat="0.0010034" lon="0.0006541"/>
  <node id="188" version="1" lat="0.0010048" lon="0.0003823"/>
  <way id="18" version="1">
    <nd ref="187"/>
    <nd ref="188"/>
    <tag k="type" v="line_thin"/>
    <tag k="subtype" v="dashed"/>
  </way>
  <relation id="18" version="1">
    <member type="way" ref="18" role="centerline"/>
    <tag k="type" v="lanelet"/>
    <tag k="subtype" v="road"/>
    <tag k="location" v="urban"/>
    <tag k="one_way" v="yes"/>
    <tag k="lane_id" v="-20_1"/>
    <tag k="edge_id" v="-20"/>
  </relation>
  <node id="189" version="1" lat="0.0010511" lon="0.0001133"/>
  <node id="190" version="1" lat="0.0010590" lon="-0.0014130"/>
  <way id="19" version="1">
    <nd ref="189"/>
    <nd ref="190"/>
    <tag k="type" v="line_thin"/>
    <tag k="subtype" v="dashed"/>
  </way>
  <relation id="19" version="1">
    <member type="way" ref="19" role="centerline"/>
    <tag k="type" v="lanelet"/>
    <tag k="subtype" v="road"/>
    <tag k="location" v="urban"/>
    <tag k="one_way" v="yes"/>
    <tag k="lane_id" v="-21_0"/>
    <tag k="edge_id" v="-21"/>
  </relation>
  <node id="191" version="1" lat="0.0010062" lon="0.0001128"/>
  <node id="192" version="1" lat="0.0010141" lon="-0.0014136"/>
  <way id="20" version="1">
    <nd ref="191"/>
    <nd ref="192"/>
    <tag k="type" v="line_thin"/>
    <tag k="subtype" v="dashed"/>
  </way>
  <relation id="20" version="1">
    <member type="way" ref="20" role="centerline"/>
    <tag k="type" v="lanelet"/>
    <tag k="subtype" v="road"/>
    <tag k="location" v="urban"/>
    <tag k="one_way" v="yes"/>
    <tag k="lane_id" v="-21_1"/>
    <tag k="edge_id" v="-21"/>
  </relation>
  <node id="193" version="1" lat="0.0010600" lon="-0.0016868"/>
  <node id="194" version="1" lat="0.0010598" lon="-0.0017126"/>
  <node id="195" version="1" lat="0.0010596" lon="-0.0017386"/>
  <node id="196" version="1" lat="0.0010593" lon="-0.0017647"/>
  <node id="197" version="1" lat="0.0010589" lon="-0.0017908"/>
  <node id="198" version="1" lat="0.0010585" lon="-0.0018169"/>
  <node id="199" version="1" lat="0.0010580" lon="-0.0018429"/>
  <node id="200" version="1" lat="0.0010574" lon="-0.0018689"/>
  <node id="201" version="1" lat="0.0010570" lon="-0.0018825"/>
  <node id="202" version="1" lat="0.0010564" lon="-0.0019083"/>
  <node id="203" version="1" lat="0.0010556" lon="-0.0019343"/>
  <node id="204" version="1" lat="0.0010456" lon="-0.0022729"/>
  <way id="21" version="1">
    <nd ref="193"/>
    <nd ref="194"/>
    <nd ref="195"/>
    <nd ref="196"/>
    <nd ref="197"/>
    <nd ref="198"/>
    <nd ref="199"/>
    <nd ref="200"/>
    <nd ref="201"/>
    <nd ref="202"/>
    <nd ref="203"/>
    <nd ref="204"/>
    <tag k="type" v="line_thin"/>
    <tag k="subtype" v="dashed"/>
  </way>
  <relation id="21" version="1">
    <member type="way" ref="21" role="centerline"/>
    <tag k="type" v="lanelet"/>
    <tag k="subtype" v="road"/>
    <tag k="location" v="urban"/>
    <tag k="one_way" v="yes"/>
    <tag k="lane_id" v="-22_0"/>
    <tag k="edge_id" v="-22"/>
  </relation>
  <node id="205" version="1" lat="0.0010151" lon="-0.0016863"/>
  <node id="206" version="1" lat="0.0010149" lon="-0.0017119"/>
  <node id="207" version="1" lat="0.0010147" lon="-0.0017377"/>
  <node id="208" version="1" lat="0.0010144" lon="-0.0017635"/>
  <node id="209" version="1" lat="0.0010140" lon="-0.0017893"/>
  <node id="210" version="1" lat="0.0010136" lon="-0.0018152"/>
  <node id="211" version="1" lat="0.0010131" lon="-0.0018410"/>
  <node id="212" version="1" lat="0.0010125" lon="-0.0018667"/>
  <node id="213" version="1" lat="0.0010122" lon="-0.0018800"/>
  <node id="214" version="1" lat="0.0010115" lon="-0.0019058"/>
  <node id="215" version="1" lat="0.0010108" lon="-0.0019315"/>
  <node id="216" version="1" lat="0.0010007" lon="-0.0022702"/>
  <way id="22" version="1">
    <nd ref="205"/>
    <nd ref="206"/>
    <nd ref="207"/>
    <nd ref="208"/>
    <nd ref="209"/>
    <nd ref="210"/>
    <nd ref="211"/>
    <nd ref="212"/>
    <nd ref="213"/>
    <nd ref="214"/>
    <nd ref="215"/>
    <nd ref="216"/>
    <tag k="type" v="line_thin"/>
    <tag k="subtype" v="dashed"/>
  </way>
  <relation id="22" version="1">
    <member type="way" ref="22" role="centerline"/>
    <tag k="type" v="lanelet"/>
    <tag k="subtype" v="road"/>
    <tag k="location" v="urban"/>
    <tag k="one_way" v="yes"/>
    <tag k="lane_id" v="-22_1"/>
    <tag k="edge_id" v="-22"/>
  </relation>
  <node id="217" version="1" lat="-0.0015017" lon="0.0030641"/>
  <node id="218" version="1" lat="-0.0007290" lon="0.0030630"/>
  <way id="23" version="1">
    <nd ref="217"/>
    <nd ref="218"/>
    <tag k="type" v="line_thin"/>
    <tag k="subtype" v="dashed"/>
  </way>
  <relation id="23" version="1">
    <member type="way" ref="23" role="centerline"/>
    <tag k="type" v="lanelet"/>
    <tag k="subtype" v="road"/>
    <tag k="location" v="urban"/>
    <tag k="one_way" v="yes"/>
    <tag k="lane_id" v="-23_0"/>
    <tag k="edge_id" v="-23"/>
  </relation>
  <node id="219" version="1" lat="-0.0015018" lon="0.0030000"/>
  <node id="220" version="1" lat="-0.0007290" lon="0.0029988"/>
  <way id="24" version="1">
    <nd ref="219"/>
    <nd ref="220"/>
    <tag k="type" v="line_thin"/>
    <tag k="subtype" v="dashed"/>
  </way>
  <relation id="24" version="1">
    <member type="way" ref="24" role="centerline"/>
    <tag k="type" v="lanelet"/>
    <tag k="subtype" v="road"/>
    <tag k="location" v="urban"/>
    <tag k="one_way" v="yes"/>
    <tag k="lane_id" v="-23_1"/>
    <tag k="edge_id" v="-23"/>
  </relation>
  <node id="221" version="1" lat="-0.0005403" lon="0.0030629"/>
  <node id="222" version="1" lat="-0.0003942" lon="0.0030626"/>
  <way id="25" version="1">
    <nd ref="221"/>
    <nd ref="222"/>
    <tag k="type" v="line_thin"/>
    <tag k="subtype" v="dashed"/>
  </way>
  <relation id="25" version="1">
    <member type="way" ref="25" role="centerline"/>
    <tag k="type" v="lanelet"/>
    <tag k="subtype" v="road"/>
    <tag k="location" v="urban"/>
    <tag k="one_way" v="yes"/>
    <tag k="lane_id" v="-24_0"/>
    <tag k="edge_id" v="-24"/>
  </relation>
  <node id="223" version="1" lat="-0.0005403" lon="0.0029987"/>
  <node id="224" version="1" lat="-0.0003943" lon="0.0029984"/>
  <way id="26" version="1">
    <nd ref="223"/>
    <nd ref="224"/>
    <tag k="type" v="line_thin"/>
    <tag k="subtype" v="dashed"/>
  </way>
  <relation id="26" version="1">
    <member type="way" ref="26" role="centerline"/>
    <tag k="type" v="lanelet"/>
    <tag k="subtype" v="road"/>
    <tag k="location" v="urban"/>
    <tag k="one_way" v="yes"/>
    <tag k="lane_id" v="-24_1"/>
    <tag k="edge_id" v="-24"/>
  </relation>
  <node id="225" version="1" lat="-0.0001922" lon="0.0030623"/>
  <node id="226" version="1" lat="0.0008309" lon="0.0030609"/>
  <way id="27" version="1">
    <nd ref="225"/>
    <nd ref="226"/>
    <tag k="type" v="line_thin"/>
    <tag k="subtype" v="dashed"/>
  </way>
  <relation id="27" version="1">
    <member type="way" ref="27" role="centerline"/>
    <tag k="type" v="lanelet"/>
    <tag k="subtype" v="road"/>
    <tag k="location" v="urban"/>
    <tag k="one_way" v="yes"/>
    <tag k="lane_id" v="-25_0"/>
    <tag k="edge_id" v="-25"/>
  </relation>
  <node id="227" version="1" lat="-0.0001922" lon="0.0029982"/>
  <node id="228" version="1" lat="0.0008309" lon="0.0029968"/>
  <way id="28" version="1">
    <nd ref="227"/>
    <nd ref="228"/>
    <tag k="type" v="line_thin"/>
    <tag k="subtype" v="dashed"/>
  </way>
  <relation id="28" version="1">
    <member type="way" ref="28" role="centerline"/>
    <tag k="type" v="lanelet"/>
    <tag k="subtype" v="road"/>
    <tag k="location" v="urban"/>
    <tag k="one_way" v="yes"/>
    <tag k="lane_id" v="-25_1"/>
    <tag k="edge_id" v="-25"/>
  </relation>
  <node id="229" version="1" lat="-0.0017212" lon="-0.0014628"/>
  <node id="230" version="1" lat="-0.0017215" lon="-0.0014369"/>
  <node id="231" version="1" lat="-0.0017218" lon="-0.0014110"/>
  <node id="232" version="1" lat="-0.0017221" lon="-0.0013851"/>
  <node id="233" version="1" lat="-0.0017222" lon="-0.0013590"/>
  <node id="234" version="1" lat="-0.0017222" lon="-0.0013331"/>
  <node id="235" version="1" lat="-0.0017222" lon="-0.0013072"/>
  <node id="236" version="1" lat="-0.0017222" lon="-0.0012914"/>
  <node id="237" version="1" lat="-0.0017175" lon="0.0001229"/>
  <way id="29" version="1">
    <nd ref="229"/>
    <nd ref="230"/>
    <nd ref="231"/>
    <nd ref="232"/>
    <nd ref="233"/>
    <nd ref="234"/>
    <nd ref="235"/>
    <nd ref="236"/>
    <nd ref="237"/>
    <tag k="type" v="line_thin"/>
    <tag k="subtype" v="dashed"/>
  </way>
  <relation id="29" version="1">
    <member type="way" ref="29" role="centerline"/>
    <tag k="type" v="lanelet"/>
    <tag k="subtype" v="road"/>
    <tag k="location" v="urban"/>
    <tag k="one_way" v="yes"/>
    <tag k="lane_id" v="-3_0"/>
    <tag k="edge_id" v="-3"/>
  </relation>
  <node id="238" version="1" lat="-0.0016762" lon="-0.0014616"/>
  <node id="239" version="1" lat="-0.0016766" lon="-0.0014359"/>
  <node id="240" version="1" lat="-0.0016769" lon="-0.0014101"/>
  <node id="241" version="1" lat="-0.0016771" lon="-0.0013844"/>
  <node id="242" version="1" lat="-0.0016772" lon="-0.0013586"/>
  <node id="243" version="1" lat="-0.0016773" lon="-0.0013330"/>
  <node id="244" version="1" lat="-0.0016773" lon="-0.0013073"/>
  <node id="245" version="1" lat="-0.0016773" lon="-0.0012916"/>
  <node id="246" version="1" lat="-0.0016726" lon="0.0001227"/>
  <way id="30" version="1">
    <nd ref="238"/>
    <nd ref="239"/>
    <nd ref="240"/>
    <nd ref="241"/>
    <nd ref="242"/>
    <nd ref="243"/>
    <nd ref="244"/>
    <nd ref="245"/>
    <nd ref="246"/>
    <tag k="type" v="line_thin"/>
    <tag k="subtype" v="dashed"/>
  </way>
  <relation id="30" version="1">
    <member type="way" ref="30" role="centerline"/>
    <tag k="type" v="lanelet"/>
    <tag k="subtype" v="road"/>
    <tag k="location" v="urban"/>
    <tag k="one_way" v="yes"/>
    <tag k="lane_id" v="-3_1"/>
    <tag k="edge_id" v="-3"/>
  </relation>
  <node id="247" version="1" lat="-0.0017165" lon="0.0003924"/>
  <node id="248" version="1" lat="-0.0017156" lon="0.0006597"/>
  <way id="31" version="1">
    <nd ref="247"/>
    <nd ref="248"/>
    <tag k="type" v="line_thin"/>
    <tag k="subtype" v="dashed"/>
  </way>
  <relation id="31" version="1">
    <member type="way" ref="31" role="centerline"/>
    <tag k="type" v="lanelet"/>
    <tag k="subtype" v="road"/>
    <tag k="location" v="urban"/>
    <tag k="one_way" v="yes"/>
    <tag k="lane_id" v="-4_0"/>
    <tag k="edge_id" v="-4"/>
  </relation>
  <node id="249" version="1" lat="-0.0016716" lon="0.0003922"/>
  <node id="250" version="1" lat="-0.0016707" lon="0.0006595"/>
  <way id="32" version="1">
    <nd ref="249"/>
    <nd ref="250"/>
    <tag k="type" v="line_thin"/>
    <tag k="subtype" v="dashed"/>
  </way>
  <relation id="32" version="1">
    <member type="way" ref="32" role="centerline"/>
    <tag k="type" v="lanelet"/>
    <tag k="subtype" v="road"/>
    <tag k="location" v="urban"/>
    <tag k="one_way" v="yes"/>
    <tag k="lane_id" v="-4_1"/>
    <tag k="edge_id" v="-4"/>
  </relation>
  <node id="251" version="1" lat="-0.0017147" lon="0.0009292"/>
  <node id="252" version="1" lat="-0.0017125" lon="0.0015744"/>
  <way id="33" version="1">
    <nd ref="251"/>
    <nd ref="252"/>
    <tag k="type" v="line_thin"/>
    <tag k="subtype" v="dashed"/>
  </way>
  <relation id="33" version="1">
    <member type="way" ref="33" role="centerline"/>
    <tag k="type" v="lanelet"/>
    <tag k="subtype" v="road"/>
    <tag k="location" v="urban"/>
    <tag k="one_way" v="yes"/>
    <tag k="lane_id" v="-5_0"/>
    <tag k="edge_id" v="-5"/>
  </relation>
  <node id="253" version="1" lat="-0.0016698" lon="0.0009290"/>
  <node id="254" version="1" lat="-0.0016676" lon="0.0015741"/>
  <way id="34" version="1">
    <nd ref="253"/>
    <nd ref="254"/>
    <tag k="type" v="line_thin"/>
    <tag k="subtype" v="dashed"/>
  </way>
  <relation id="34" version="1">
    <member type="way" ref="34" role="centerline"/>
    <tag k="type" v="lanelet"/>
    <tag k="subtype" v="road"/>
    <tag k="location" v="urban"/>
    <tag k="one_way" v="yes"/>
    <tag k="lane_id" v="-5_1"/>
    <tag k="edge_id" v="-5"/>
  </relation>
  <node id="255" version="1" lat="-0.0017116" lon="0.0018440"/>
  <node id="256" version="1" lat="-0.0017086" lon="0.0027544"/>
  <way id="35" version="1">
    <nd ref="255"/>
    <nd ref="256"/>
    <tag k="type" v="line_thin"/>
    <tag k="subtype" v="dashed"/>
  </way>
  <relation id="35" version="1">
    <member type="way" ref="35" role="centerline"/>
    <tag k="type" v="lanelet"/>
    <tag k="subtype" v="road"/>
    <tag k="location" v="urban"/>
    <tag k="one_way" v="yes"/>
    <tag k="lane_id" v="-6_0"/>
    <tag k="edge_id" v="-6"/>
  </relation>
  <node id="257" version="1" lat="-0.0016667" lon="0.0018436"/>
  <node id="258" version="1" lat="-0.0016637" lon="0.0027540"/>
  <way id="36" version="1">
    <nd ref="257"/>
    <nd ref="258"/>
    <tag k="type" v="line_thin"/>
    <tag k="subtype" v="dashed"/>
  </way>
  <relation id="36" version="1">
    <member type="way" ref="36" role="centerline"/>
    <tag k="type" v="lanelet"/>
    <tag k="subtype" v="road"/>
    <tag k="location" v="urban"/>
    <tag k="one_way" v="yes"/>
    <tag k="lane_id" v="-6_1"/>
    <tag k="edge_id" v="-6"/>
  </relation>
  <node id="259" version="1" lat="-0.0006427" lon="0.0009271"/>
  <node id="260" version="1" lat="-0.0006478" lon="0.0015770"/>
  <way id="37" version="1">
    <nd ref="259"/>
    <nd ref="260"/>
    <tag k="type" v="line_thin"/>
    <tag k="subtype" v="dashed"/>
  </way>
  <relation id="37" version="1">
    <member type="way" ref="37" role="centerline"/>
    <tag k="type" v="lanelet"/>
    <tag k="subtype" v="road"/>
    <tag k="location" v="urban"/>
    <tag k="one_way" v="yes"/>
    <tag k="lane_id" v="10_0"/>
    <tag k="edge_id" v="10"/>
  </relation>
  <node id="261" version="1" lat="-0.0005977" lon="0.0009277"/>
  <node id="262" version="1" lat="-0.0006029" lon="0.0015778"/>
  <way id="38" version="1">
    <nd ref="261"/>
    <nd ref="262"/>
    <tag k="type" v="line_thin"/>
    <tag k="subtype" v="dashed"/>
  </way>
  <relation id="38" version="1">
    <member type="way" ref="38" role="centerline"/>
    <tag k="type" v="lanelet"/>
    <tag k="subtype" v="road"/>
    <tag k="location" v="urban"/>
    <tag k="one_way" v="yes"/>
    <tag k="lane_id" v="10_1"/>
    <tag k="edge_id" v="10"/>
  </relation>
  <node id="263" version="1" lat="-0.0006383" lon="0.0003887"/>
  <node id="264" version="1" lat="-0.0006404" lon="0.0006540"/>
  <way id="39" version="1">
    <nd ref="263"/>
    <nd ref="264"/>
    <tag k="type" v="line_thin"/>
    <tag k="subtype" v="dashed"/>
  </way>
  <relation id="39" version="1">
    <member type="way" ref="39" role="centerline"/>
    <tag k="type" v="lanelet"/>
    <tag k="subtype" v="road"/>
    <tag k="location" v="urban"/>
    <tag k="one_way" v="yes"/>
    <tag k="lane_id" v="11_0"/>
    <tag k="edge_id" v="11"/>
  </relation>
  <node id="265" version="1" lat="-0.0005934" lon="0.0003894"/>
  <node id="266" version="1" lat="-0.0005955" lon="0.0006547"/>
  <way id="40" version="1">
    <nd ref="265"/>
    <nd ref="266"/>
    <tag k="type" v="line_thin"/>
    <tag k="subtype" v="dashed"/>
  </way>
  <relation id="40" version="1">
    <member type="way" ref="40" role="centerline"/>
    <tag k="type" v="lanelet"/>
    <tag k="subtype" v="road"/>
    <tag k="location" v="urban"/>
    <tag k="one_way" v="yes"/>
    <tag k="lane_id" v="11_1"/>
    <tag k="edge_id" v="11"/>
  </relation>
  <node id="267" version="1" lat="-0.0006238" lon="-0.0014373"/>
  <node id="268" version="1" lat="-0.0006362" lon="0.0001152"/>
  <way id="41" version="1">
    <nd ref="267"/>
    <nd ref="268"/>
    <tag k="type" v="line_thin"/>
    <tag k="subtype" v="dashed"/>
  </way>
  <relation id="41" version="1">
    <member type="way" ref="41" role="centerline"/>
    <tag k="type" v="lanelet"/>
    <tag k="subtype" v="road"/>
    <tag k="location" v="urban"/>
    <tag k="one_way" v="yes"/>
    <tag k="lane_id" v="12_0"/>
    <tag k="edge_id" v="12"/>
  </relation>
  <node id="269" version="1" lat="-0.0005789" lon="-0.0014365"/>
  <node id="270" version="1" lat="-0.0005913" lon="0.0001160"/>
  <way id="42" version="1">
    <nd ref="269"/>
    <nd ref="270"/>
    <tag k="type" v="line_thin"/>
    <tag k="subtype" v="dashed"/>
  </way>
  <relation id="42" version="1">
    <member type="way" ref="42" role="centerline"/>
    <tag k="type" v="lanelet"/>
    <tag k="subtype" v="road"/>
    <tag k="location" v="urban"/>
    <tag k="one_way" v="yes"/>
    <tag k="lane_id" v="12_1"/>
    <tag k="edge_id" v="12"/>
  </relation>
  <node id="271" version="1" lat="-0.0014748" lon="-0.0023253"/>
  <node id="272" version="1" lat="-0.0001945" lon="-0.0022342"/>
  <node id="273" version="1" lat="-0.0001854" lon="-0.0022336"/>
  <node id="274" version="1" lat="-0.0001674" lon="-0.0022324"/>
  <node id="275" version="1" lat="-0.0001493" lon="-0.0022315"/>
  <node id="276" version="1" lat="-0.0001312" lon="-0.0022306"/>
  <node id="277" version="1" lat="-0.0001131" lon="-0.0022299"/>
  <node id="278" version="1" lat="-0.0000950" lon="-0.0022294"/>
  <node id="279" version="1" lat="-0.0000769" lon="-0.0022288"/>
  <node id="280" version="1" lat="-0.0000588" lon="-0.0022286"/>
  <node id="281" version="1" lat="-0.0000408" lon="-0.0022285"/>
  <node id="282" version="1" lat="-0.0000226" lon="-0.0022285"/>
  <node id="283" version="1" lat="-0.0000046" lon="-0.0022286"/>
  <node id="284" version="1" lat="0.0000135" lon="-0.0022288"/>
  <node id="285" version="1" lat="0.0000316" lon="-0.0022292"/>
  <node id="286" version="1" lat="0.0000497" lon="-0.0022299"/>
  <node id="287" version="1" lat="0.0000677" lon="-0.0022305"/>
  <node id="288" version="1" lat="0.0000859" lon="-0.0022314"/>
  <node id="289" version="1" lat="0.0001039" lon="-0.0022324"/>
  <node id="290" version="1" lat="0.0001220" lon="-0.0022335"/>
  <node id="291" version="1" lat="0.0001400" lon="-0.0022347"/>
  <node id="292" version="1" lat="0.0001581" lon="-0.0022362"/>
  <node id="293" version="1" lat="0.0001762" lon="-0.0022377"/>
  <node id="294" version="1" lat="0.0001942" lon="-0.0022394"/>
  <node id="295" version="1" lat="0.0002123" lon="-0.0022413"/>
  <node id="296" version="1" lat="0.0002303" lon="-0.0022432"/>
  <node id="297" version="1" lat="0.0002484" lon="-0.0022454"/>
  <node id="298" version="1" lat="0.0002663" lon="-0.0022476"/>
  <node id="299" version="1" lat="0.0002844" lon="-0.0022500"/>
  <node id="300" version="1" lat="0.0003024" lon="-0.0022526"/>
  <node id="301" version="1" lat="0.0003203" lon="-0.0022553"/>
  <node id="302" version="1" lat="0.0003384" lon="-0.0022581"/>
  <node id="303" version="1" lat="0.0003564" lon="-0.0022610"/>
  <node id="304" version="1" lat="0.0003742" lon="-0.0022641"/>
  <node id="305" version="1" lat="0.0003922" lon="-0.0022675"/>
  <node id="306" version="1" lat="0.0004102" lon="-0.0022708"/>
  <node id="307" version="1" lat="0.0004280" lon="-0.0022743"/>
  <node id="308" version="1" lat="0.0004460" lon="-0.0022780"/>
  <node id="309" version="1" lat="0.0004639" lon="-0.0022818"/>
  <node id="310" version="1" lat="0.0004818" lon="-0.0022858"/>
  <node id="311" version="1" lat="0.0004996" lon="-0.0022898"/>
  <node id="312" version="1" lat="0.0005174" lon="-0.0022940"/>
  <node id="313" version="1" lat="0.0005353" lon="-0.0022984"/>
  <node id="314" version="1" lat="0.0005531" lon="-0.0023030"/>
  <node id="315" version="1" lat="0.0005709" lon="-0.0023076"/>
  <node id="316" version="1" lat="0.0005887" lon="-0.0023124"/>
  <node id="317" version="1" lat="0.0006064" lon="-0.0023174"/>
  <node id="318" version="1" lat="0.0006241" lon="-0.0023224"/>
  <node id="319" version="1" lat="0.0006418" lon="-0.0023277"/>
  <node id="320" version="1" lat="0.0006595" lon="-0.0023329"/>
  <node id="321" version="1" lat="0.0006772" lon="-0.0023384"/>
  <node id="322" version="1" lat="0.0006949" lon="-0.0023441"/>
  <node id="323" version="1" lat="0.0007125" lon="-0.0023499"/>
  <node id="324" version="1" lat="0.0007301" lon="-0.0023558"/>
  <node id="325" version="1" lat="0.0007478" lon="-0.0023618"/>
  <node id="326" version="1" lat="0.0007653" lon="-0.0023679"/>
  <node id="327" version="1" lat="0.0007829" lon="-0.0023742"/>
  <node id="328" version="1" lat="0.0008003" lon="-0.0023808"/>
  <way id="43" version="1">
    <nd ref="271"/>
    <nd ref="272"/>
    <nd ref="273"/>
    <nd ref="274"/>
    <nd ref="275"/>
    <nd ref="276"/>
    <nd ref="277"/>
    <nd ref="278"/>
    <nd ref="279"/>
    <nd ref="280"/>
    <nd ref="281"/>
    <nd ref="282"/>
    <nd ref="283"/>
    <nd ref="284"/>
    <nd ref="285"/>
    <nd ref="286"/>
    <nd ref="287"/>
    <nd ref="288"/>
    <nd ref="289"/>
    <nd ref="290"/>
    <nd ref="291"/>
    <nd ref="292"/>
    <nd ref="293"/>
    <nd ref="294"/>
    <nd ref="295"/>
    <nd ref="296"/>
    <nd ref="297"/>
    <nd ref="298"/>
    <nd ref="299"/>
    <nd ref="300"/>
    <nd ref="301"/>
    <nd ref="302"/>
    <nd ref="303"/>
    <nd ref="304"/>
    <nd ref="305"/>
    <nd ref="306"/>
    <nd ref="307"/>
    <nd ref="308"/>
    <nd ref="309"/>
    <nd ref="310"/>
    <nd ref="311"/>
    <nd ref="312"/>
    <nd ref="313"/>
    <nd ref="314"/>
    <nd ref="315"/>
    <nd ref="316"/>
    <nd ref="317"/>
    <nd ref="318"/>
    <nd ref="319"/>
    <nd ref="320"/>
    <nd ref="321"/>
    <nd ref="322"/>
    <nd ref="323"/>
    <nd ref="324"/>
    <nd ref="325"/>
    <nd ref="326"/>
    <nd ref="327"/>
    <nd ref="328"/>
    <tag k="type" v="line_thin"/>
    <tag k="subtype" v="dashed"/>
  </way>
  <relation id="43" version="1">
    <member type="way" ref="43" role="centerline"/>
    <tag k="type" v="lanelet"/>
    <tag k="subtype" v="road"/>
    <tag k="location" v="urban"/>
    <tag k="one_way" v="yes"/>
    <tag k="lane_id" v="13_0"/>
    <tag k="edge_id" v="13"/>
  </relation>
  <node id="329" version="1" lat="-0.0014725" lon="-0.0023894"/>
  <node id="330" version="1" lat="-0.0001922" lon="-0.0022984"/>
  <node id="331" version="1" lat="-0.0001833" lon="-0.0022978"/>
  <node id="332" version="1" lat="-0.0001655" lon="-0.0022966"/>
  <node id="333" version="1" lat="-0.0001477" lon="-0.0022956"/>
  <node id="334" version="1" lat="-0.0001298" lon="-0.0022948"/>
  <node id="335" version="1" lat="-0.0001120" lon="-0.0022940"/>
  <node id="336" version="1" lat="-0.0000941" lon="-0.0022935"/>
  <node id="337" version="1" lat="-0.0000763" lon="-0.0022930"/>
  <node id="338" version="1" lat="-0.0000585" lon="-0.0022927"/>
  <node id="339" version="1" lat="-0.0000406" lon="-0.0022926"/>
  <node id="340" version="1" lat="-0.0000228" lon="-0.0022926"/>
  <node id="341" version="1" lat="-0.0000049" lon="-0.0022927"/>
  <node id="342" version="1" lat="0.0000129" lon="-0.0022930"/>
  <node id="343" version="1" lat="0.0000307" lon="-0.0022934"/>
  <node id="344" version="1" lat="0.0000486" lon="-0.0022940"/>
  <node id="345" version="1" lat="0.0000664" lon="-0.0022947"/>
  <node id="346" version="1" lat="0.0000843" lon="-0.0022956"/>
  <node id="347" version="1" lat="0.0001020" lon="-0.0022965"/>
  <node id="348" version="1" lat="0.0001199" lon="-0.0022976"/>
  <node id="349" version="1" lat="0.0001377" lon="-0.0022989"/>
  <node id="350" version="1" lat="0.0001556" lon="-0.0023002"/>
  <node id="351" version="1" lat="0.0001734" lon="-0.0023017"/>
  <node id="352" version="1" lat="0.0001912" lon="-0.0023034"/>
  <node id="353" version="1" lat="0.0002089" lon="-0.0023052"/>
  <node id="354" version="1" lat="0.0002267" lon="-0.0023072"/>
  <node id="355" version="1" lat="0.0002445" lon="-0.0023093"/>
  <node id="356" version="1" lat="0.0002623" lon="-0.0023115"/>
  <node id="357" version="1" lat="0.0002801" lon="-0.0023139"/>
  <node id="358" version="1" lat="0.0002978" lon="-0.0023164"/>
  <node id="359" version="1" lat="0.0003156" lon="-0.0023191"/>
  <node id="360" version="1" lat="0.0003333" lon="-0.0023219"/>
  <node id="361" version="1" lat="0.0003511" lon="-0.0023247"/>
  <node id="362" version="1" lat="0.0003688" lon="-0.0023278"/>
  <node id="363" version="1" lat="0.0003865" lon="-0.0023310"/>
  <node id="364" version="1" lat="0.0004042" lon="-0.0023343"/>
  <node id="365" version="1" lat="0.0004218" lon="-0.0023379"/>
  <node id="366" version="1" lat="0.0004395" lon="-0.0023415"/>
  <node id="367" version="1" lat="0.0004572" lon="-0.0023452"/>
  <node id="368" version="1" lat="0.0004748" lon="-0.0023491"/>
  <node id="369" version="1" lat="0.0004924" lon="-0.0023532"/>
  <node id="370" version="1" lat="0.0005100" lon="-0.0023573"/>
  <node id="371" version="1" lat="0.0005276" lon="-0.0023617"/>
  <node id="372" version="1" lat="0.0005451" lon="-0.0023662"/>
  <node id="373" version="1" lat="0.0005627" lon="-0.0023706"/>
  <node id="374" version="1" lat="0.0005802" lon="-0.0023754"/>
  <node id="375" version="1" lat="0.0005977" lon="-0.0023803"/>
  <node id="376" version="1" lat="0.0006153" lon="-0.0023853"/>
  <node id="377" version="1" lat="0.0006327" lon="-0.0023904"/>
  <node id="378" version="1" lat="0.0006502" lon="-0.0023957"/>
  <node id="379" version="1" lat="0.0006676" lon="-0.0024011"/>
  <node id="380" version="1" lat="0.0006851" lon="-0.0024067"/>
  <node id="381" version="1" lat="0.0007024" lon="-0.0024124"/>
  <node id="382" version="1" lat="0.0007198" lon="-0.0024181"/>
  <node id="383" version="1" lat="0.0007372" lon="-0.0024242"/>
  <node id="384" version="1" lat="0.0007545" lon="-0.0024302"/>
  <node id="385" version="1" lat="0.0007717" lon="-0.0024365"/>
  <node id="386" version="1" lat="0.0007891" lon="-0.0024429"/>
  <way id="44" version="1">
    <nd ref="329"/>
    <nd ref="330"/>
    <nd ref="331"/>
    <nd ref="332"/>
    <nd ref="333"/>
    <nd ref="334"/>
    <nd ref="335"/>
    <nd ref="336"/>
    <nd ref="337"/>
    <nd ref="338"/>
    <nd ref="339"/>
    <nd ref="340"/>
    <nd ref="341"/>
    <nd ref="342"/>
    <nd ref="343"/>
    <nd ref="344"/>
    <nd ref="345"/>
    <nd ref="346"/>
    <nd ref="347"/>
    <nd ref="348"/>
    <nd ref="349"/>
    <nd ref="350"/>
    <nd ref="351"/>
    <nd ref="352"/>
    <nd ref="353"/>
    <nd ref="354"/>
    <nd ref="355"/>
    <nd ref="356"/>
    <nd ref="357"/>
    <nd ref="358"/>
    <nd ref="359"/>
    <nd ref="360"/>
    <nd ref="361"/>
    <nd ref="362"/>
    <nd ref="363"/>
    <nd ref="364"/>
    <nd ref="365"/>
    <nd ref="366"/>
    <nd ref="367"/>
    <nd ref="368"/>
    <nd ref="369"/>
    <nd ref="370"/>
    <nd ref="371"/>
    <nd ref="372"/>
    <nd ref="373"/>
    <nd ref="374"/>
    <nd ref="375"/>
    <nd ref="376"/>
    <nd ref="377"/>
    <nd ref="378"/>
    <nd ref="379"/>
    <nd ref="380"/>
    <nd ref="381"/>
    <nd ref="382"/>
    <nd ref="383"/>
    <nd ref="384"/>
    <nd ref="385"/>
    <nd ref="386"/>
    <tag k="type" v="line_thin"/>
    <tag k="subtype" v="dashed"/>
  </way>
  <relation id="44" version="1">
    <member type="way" ref="44" role="centerline"/>
    <tag k="type" v="lanelet"/>
    <tag k="subtype" v="road"/>
    <tag k="location" v="urban"/>
    <tag k="one_way" v="yes"/>
    <tag k="lane_id" v="13_1"/>
    <tag k="edge_id" v="13"/>
  </relation>
  <node id="387" version="1" lat="0.0004471" lon="0.0017104"/>
  <node id="388" version="1" lat="0.0005824" lon="0.0015224"/>
  <node id="389" version="1" lat="0.0005953" lon="0.0015043"/>
  <node id="390" version="1" lat="0.0006028" lon="0.0014936"/>
  <node id="391" version="1" lat="0.0006155" lon="0.0014752"/>
  <node id="392" version="1" lat="0.0006282" lon="0.0014564"/>
  <node id="393" version="1" lat="0.0006406" lon="0.0014374"/>
  <node id="394" version="1" lat="0.0006430" lon="0.0014336"/>
  <node id="395" version="1" lat="0.0006564" lon="0.0014127"/>
  <node id="396" version="1" lat="0.0006680" lon="0.0013958"/>
  <node id="397" version="1" lat="0.0006714" lon="0.0013919"/>
  <node id="398" version="1" lat="0.0006836" lon="0.0013808"/>
  <node id="399" version="1" lat="0.0006964" lon="0.0013736"/>
  <node id="400" version="1" lat="0.0007123" lon="0.0013692"/>
  <node id="401" version="1" lat="0.0007285" lon="0.0013690"/>
  <node id="402" version="1" lat="0.0008379" lon="0.0013701"/>
  <way id="45" version="1">
    <nd ref="387"/>
    <nd ref="388"/>
    <nd ref="389"/>
    <nd ref="390"/>
    <nd ref="391"/>
    <nd ref="392"/>
    <nd ref="393"/>
    <nd ref="394"/>
    <nd ref="395"/>
    <nd ref="396"/>
    <nd ref="397"/>
    <nd ref="398"/>
    <nd ref="399"/>
    <nd ref="400"/>
    <nd ref="401"/>
    <nd ref="402"/>
    <tag k="type" v="line_thin"/>
    <tag k="subtype" v="dashed"/>
  </way>
  <relation id="45" version="1">
    <member type="way" ref="45" role="centerline"/>
    <tag k="type" v="lanelet"/>
    <tag k="subtype" v="road"/>
    <tag k="location" v="urban"/>
    <tag k="one_way" v="yes"/>
    <tag k="lane_id" v="14_0"/>
    <tag k="edge_id" v="14"/>
  </relation>
  <node id="403" version="1" lat="0.0004157" lon="0.0016643"/>
  <node id="404" version="1" lat="0.0005511" lon="0.0014763"/>
  <node id="405" version="1" lat="0.0005638" lon="0.0014586"/>
  <node id="406" version="1" lat="0.0005709" lon="0.0014485"/>
  <node id="407" version="1" lat="0.0005834" lon="0.0014305"/>
  <node id="408" version="1" lat="0.0005956" lon="0.0014123"/>
  <node id="409" version="1" lat="0.0006077" lon="0.0013937"/>
  <node id="410" version="1" lat="0.0006099" lon="0.0013903"/>
  <node id="411" version="1" lat="0.0006238" lon="0.0013685"/>
  <node id="412" version="1" lat="0.0006375" lon="0.0013485"/>
  <node id="413" version="1" lat="0.0006450" lon="0.0013398"/>
  <node id="414" version="1" lat="0.0006631" lon="0.0013233"/>
  <node id="415" version="1" lat="0.0006837" lon="0.0013118"/>
  <node id="416" version="1" lat="0.0007049" lon="0.0013059"/>
  <node id="417" version="1" lat="0.0007101" lon="0.0013054"/>
  <node id="418" version="1" lat="0.0007283" lon="0.0013049"/>
  <node id="419" version="1" lat="0.0008382" lon="0.0013059"/>
  <way id="46" version="1">
    <nd ref="403"/>
    <nd ref="404"/>
    <nd ref="405"/>
    <nd ref="406"/>
    <nd ref="407"/>
    <nd ref="408"/>
    <nd ref="409"/>
    <nd ref="410"/>
    <nd ref="411"/>
    <nd ref="412"/>
    <nd ref="413"/>
    <nd ref="414"/>
    <nd ref="415"/>
    <nd ref="416"/>
    <nd ref="417"/>
    <nd ref="418"/>
    <nd ref="419"/>
    <tag k="type" v="line_thin"/>
    <tag k="subtype" v="dashed"/>
  </way>
  <relation id="46" version="1">
    <member type="way" ref="46" role="centerline"/>
    <tag k="type" v="lanelet"/>
    <tag k="subtype" v="road"/>
    <tag k="location" v="urban"/>
    <tag k="one_way" v="yes"/>
    <tag k="lane_id" v="14_1"/>
    <tag k="edge_id" v="14"/>
  </relation>
  <node id="420" version="1" lat="-0.0002612" lon="0.0027375"/>
  <node id="421" version="1" lat="-0.0002575" lon="0.0027229"/>
  <node id="422" version="1" lat="-0.0002513" lon="0.0027028"/>
  <node id="423" version="1" lat="-0.0002434" lon="0.0026834"/>
  <node id="424" version="1" lat="-0.0002342" lon="0.0026652"/>
  <node id="425" version="1" lat="-0.0002243" lon="0.0026489"/>
  <node id="426" version="1" lat="-0.0002124" lon="0.0026310"/>
  <node id="427" version="1" lat="-0.0001921" lon="0.0026015"/>
  <node id="428" version="1" lat="-0.0001797" lon="0.0025833"/>
  <node id="429" version="1" lat="-0.0001692" lon="0.0025683"/>
  <node id="430" version="1" lat="-0.0001567" lon="0.0025502"/>
  <node id="431" version="1" lat="-0.0001440" lon="0.0025321"/>
  <node id="432" version="1" lat="-0.0001313" lon="0.0025141"/>
  <node id="433" version="1" lat="-0.0001186" lon="0.0024962"/>
  <node id="434" version="1" lat="-0.0001108" lon="0.0024854"/>
  <node id="435" version="1" lat="0.0002582" lon="0.0019728"/>
  <way id="47" version="1">
    <nd ref="420"/>
    <nd ref="421"/>
    <nd ref="422"/>
    <nd ref="423"/>
    <nd ref="424"/>
    <nd ref="425"/>
    <nd ref="426"/>
    <nd ref="427"/>
    <nd ref="428"/>
    <nd ref="429"/>
    <nd ref="430"/>
    <nd ref="431"/>
    <nd ref="432"/>
    <nd ref="433"/>
    <nd ref="434"/>
    <nd ref="435"/>
    <tag k="type" v="line_thin"/>
    <tag k="subtype" v="dashed"/>
  </way>
  <relation id="47" version="1">
    <member type="way" ref="47" role="centerline"/>
    <tag k="type" v="lanelet"/>
    <tag k="subtype" v="road"/>
    <tag k="location" v="urban"/>
    <tag k="one_way" v="yes"/>
    <tag k="lane_id" v="15_0"/>
    <tag k="edge_id" v="15"/>
  </relation>
  <node id="436" version="1" lat="-0.0003035" lon="0.0027156"/>
  <node id="437" version="1" lat="-0.0002992" lon="0.0026988"/>
  <node id="438" version="1" lat="-0.0002913" lon="0.0026735"/>
  <node id="439" version="1" lat="-0.0002812" lon="0.0026485"/>
  <node id="440" version="1" lat="-0.0002695" lon="0.0026253"/>
  <node id="441" version="1" lat="-0.0002575" lon="0.0026056"/>
  <node id="442" version="1" lat="-0.0002446" lon="0.0025864"/>
  <node id="443" version="1" lat="-0.0002243" lon="0.0025567"/>
  <node id="444" version="1" lat="-0.0002116" lon="0.0025382"/>
  <node id="445" version="1" lat="-0.0002012" lon="0.0025231"/>
  <node id="446" version="1" lat="-0.0001885" lon="0.0025049"/>
  <node id="447" version="1" lat="-0.0001757" lon="0.0024867"/>
  <node id="448" version="1" lat="-0.0001629" lon="0.0024684"/>
  <node id="449" version="1" lat="-0.0001500" lon="0.0024503"/>
  <node id="450" version="1" lat="-0.0001421" lon="0.0024393"/>
  <node id="451" version="1" lat="0.0002268" lon="0.0019267"/>
  <way id="48" version="1">
    <nd ref="436"/>
    <nd ref="437"/>
    <nd ref="438"/>
    <nd ref="439"/>
    <nd ref="440"/>
    <nd ref="441"/>
    <nd ref="442"/>
    <nd ref="443"/>
    <nd ref="444"/>
    <nd ref="445"/>
    <nd ref="446"/>
    <nd ref="447"/>
    <nd ref="448"/>
    <nd ref="449"/>
    <nd ref="450"/>
    <nd ref="451"/>
    <tag k="type" v="line_thin"/>
    <tag k="subtype" v="dashed"/>
  </way>
  <relation id="48" version="1">
    <member type="way" ref="48" role="centerline"/>
    <tag k="type" v="lanelet"/>
    <tag k="subtype" v="road"/>
    <tag k="location" v="urban"/>
    <tag k="one_way" v="yes"/>
    <tag k="lane_id" v="15_1"/>
    <tag k="edge_id" v="15"/>
  </relation>
  <node id="452" version="1" lat="0.0009094" lon="0.0014735"/>
  <node id="453" version="1" lat="0.0009026" lon="0.0027665"/>
  <way id="49" version="1">
    <nd ref="452"/>
    <nd ref="453"/>
    <tag k="type" v="line_thin"/>
    <tag k="subtype" v="dashed"/>
  </way>
  <relation id="49" version="1">
    <member type="way" ref="49" role="centerline"/>
    <tag k="type" v="lanelet"/>
    <tag k="subtype" v="road"/>
    <tag k="location" v="urban"/>
    <tag k="one_way" v="yes"/>
    <tag k="lane_id" v="18_0"/>
    <tag k="edge_id" v="18"/>
  </relation>
  <node id="454" version="1" lat="0.0009543" lon="0.0014739"/>
  <node id="455" version="1" lat="0.0009475" lon="0.0027671"/>
  <way id="50" version="1">
    <nd ref="454"/>
    <nd ref="455"/>
    <tag k="type" v="line_thin"/>
    <tag k="subtype" v="dashed"/>
  </way>
  <relation id="50" version="1">
    <member type="way" ref="50" role="centerline"/>
    <tag k="type" v="lanelet"/>
    <tag k="subtype" v="road"/>
    <tag k="location" v="urban"/>
    <tag k="one_way" v="yes"/>
    <tag k="lane_id" v="18_1"/>
    <tag k="edge_id" v="18"/>
  </relation>
  <node id="456" version="1" lat="0.0009121" lon="0.0009227"/>
  <node id="457" version="1" lat="0.0009107" lon="0.0012040"/>
  <way id="51" version="1">
    <nd ref="456"/>
    <nd ref="457"/>
    <tag k="type" v="line_thin"/>
    <tag k="subtype" v="dashed"/>
  </way>
  <relation id="51" version="1">
    <member type="way" ref="51" role="centerline"/>
    <tag k="type" v="lanelet"/>
    <tag k="subtype" v="road"/>
    <tag k="location" v="urban"/>
    <tag k="one_way" v="yes"/>
    <tag k="lane_id" v="19_0"/>
    <tag k="edge_id" v="19"/>
  </relation>
  <node id="458" version="1" lat="0.0009571" lon="0.0009232"/>
  <node id="459" version="1" lat="0.0009556" lon="0.0012044"/>
  <way id="52" version="1">
    <nd ref="458"/>
    <nd ref="459"/>
    <tag k="type" v="line_thin"/>
    <tag k="subtype" v="dashed"/>
  </way>
  <relation id="52" version="1">
    <member type="way" ref="52" role="centerline"/>
    <tag k="type" v="lanelet"/>
    <tag k="subtype" v="road"/>
    <tag k="location" v="urban"/>
    <tag k="one_way" v="yes"/>
    <tag k="lane_id" v="19_1"/>
    <tag k="edge_id" v="19"/>
  </relation>
  <node id="460" version="1" lat="-0.0015782" lon="-0.0017325"/>
  <node id="461" version="1" lat="-0.0015777" lon="-0.0017414"/>
  <node id="462" version="1" lat="-0.0015765" lon="-0.0017667"/>
  <node id="463" version="1" lat="-0.0015753" lon="-0.0017919"/>
  <node id="464" version="1" lat="-0.0015739" lon="-0.0018170"/>
  <node id="465" version="1" lat="-0.0015725" lon="-0.0018422"/>
  <node id="466" version="1" lat="-0.0015499" lon="-0.0022313"/>
  <way id="53" version="1">
    <nd ref="460"/>
    <nd ref="461"/>
    <nd ref="462"/>
    <nd ref="463"/>
    <nd ref="464"/>
    <nd ref="465"/>
    <nd ref="466"/>
    <tag k="type" v="line_thin"/>
    <tag k="subtype" v="dashed"/>
  </way>
  <relation id="53" version="1">
    <member type="way" ref="53" role="centerline"/>
    <tag k="type" v="lanelet"/>
    <tag k="subtype" v="road"/>
    <tag k="location" v="urban"/>
    <tag k="one_way" v="yes"/>
    <tag k="lane_id" v="2_0"/>
    <tag k="edge_id" v="2"/>
  </relation>
  <node id="467" version="1" lat="-0.0016230" lon="-0.0017367"/>
  <node id="468" version="1" lat="-0.0016225" lon="-0.0017458"/>
  <node id="469" version="1" lat="-0.0016214" lon="-0.0017712"/>
  <node id="470" version="1" lat="-0.0016200" lon="-0.0017966"/>
  <node id="471" version="1" lat="-0.0016187" lon="-0.0018220"/>
  <node id="472" version="1" lat="-0.0016172" lon="-0.0018474"/>
  <node id="473" version="1" lat="-0.0015947" lon="-0.0022365"/>
  <way id="54" version="1">
    <nd ref="467"/>
    <nd ref="468"/>
    <nd ref="469"/>
    <nd ref="470"/>
    <nd ref="471"/>
    <nd ref="472"/>
    <nd ref="473"/>
    <tag k="type" v="line_thin"/>
    <tag k="subtype" v="dashed"/>
  </way>
  <relation id="54" version="1">
    <member type="way" ref="54" role="centerline"/>
    <tag k="type" v="lanelet"/>
    <tag k="subtype" v="road"/>
    <tag k="location" v="urban"/>
    <tag k="one_way" v="yes"/>
    <tag k="lane_id" v="2_1"/>
    <tag k="edge_id" v="2"/>
  </relation>
  <node id="474" version="1" lat="0.0009149" lon="0.0003814"/>
  <node id="475" version="1" lat="0.0009136" lon="0.0006532"/>
  <way id="55" version="1">
    <nd ref="474"/>
    <nd ref="475"/>
    <tag k="type" v="line_thin"/>
    <tag k="subtype" v="dashed"/>
  </way>
  <relation id="55" version="1">
    <member type="way" ref="55" role="centerline"/>
    <tag k="type" v="lanelet"/>
    <tag k="subtype" v="road"/>
    <tag k="location" v="urban"/>
    <tag k="one_way" v="yes"/>
    <tag k="lane_id" v="20_0"/>
    <tag k="edge_id" v="20"/>
  </relation>
  <node id="476" version="1" lat="0.0009598" lon="0.0003818"/>
  <node id="477" version="1" lat="0.0009585" lon="0.0006536"/>
  <way id="56" version="1">
    <nd ref="476"/>
    <nd ref="477"/>
    <tag k="type" v="line_thin"/>
    <tag k="subtype" v="dashed"/>
  </way>
  <relation id="56" version="1">
    <member type="way" ref="56" role="centerline"/>
    <tag k="type" v="lanelet"/>
    <tag k="subtype" v="road"/>
    <tag k="location" v="urban"/>
    <tag k="one_way" v="yes"/>
    <tag k="lane_id" v="20_1"/>
    <tag k="edge_id" v="20"/>
  </relation>
  <node id="478" version="1" lat="0.0009243" lon="-0.0014145"/>
  <node id="479" version="1" lat="0.0009164" lon="0.0001119"/>
  <way id="57" version="1">
    <nd ref="478"/>
    <nd ref="479"/>
    <tag k="type" v="line_thin"/>
    <tag k="subtype" v="dashed"/>
  </way>
  <relation id="57" version="1">
    <member type="way" ref="57" role="centerline"/>
    <tag k="type" v="lanelet"/>
    <tag k="subtype" v="road"/>
    <tag k="location" v="urban"/>
    <tag k="one_way" v="yes"/>
    <tag k="lane_id" v="21_0"/>
    <tag k="edge_id" v="21"/>
  </relation>
  <node id="480" version="1" lat="0.0009692" lon="-0.0014141"/>
  <node id="481" version="1" lat="0.0009613" lon="0.0001123"/>
  <way id="58" version="1">
    <nd ref="480"/>
    <nd ref="481"/>
    <tag k="type" v="line_thin"/>
    <tag k="subtype" v="dashed"/>
  </way>
  <relation id="58" version="1">
    <member type="way" ref="58" role="centerline"/>
    <tag k="type" v="lanelet"/>
    <tag k="subtype" v="road"/>
    <tag k="location" v="urban"/>
    <tag k="one_way" v="yes"/>
    <tag k="lane_id" v="21_1"/>
    <tag k="edge_id" v="21"/>
  </relation>
  <node id="482" version="1" lat="0.0009110" lon="-0.0022646"/>
  <node id="483" version="1" lat="0.0009210" lon="-0.0019261"/>
  <node id="484" version="1" lat="0.0009218" lon="-0.0019007"/>
  <node id="485" version="1" lat="0.0009224" lon="-0.0018753"/>
  <node id="486" version="1" lat="0.0009227" lon="-0.0018625"/>
  <node id="487" version="1" lat="0.0009233" lon="-0.0018370"/>
  <node id="488" version="1" lat="0.0009238" lon="-0.0018118"/>
  <node id="489" version="1" lat="0.0009243" lon="-0.0017865"/>
  <node id="490" version="1" lat="0.0009246" lon="-0.0017612"/>
  <node id="491" version="1" lat="0.0009249" lon="-0.0017359"/>
  <node id="492" version="1" lat="0.0009251" lon="-0.0017106"/>
  <node id="493" version="1" lat="0.0009253" lon="-0.0016852"/>
  <way id="59" version="1">
    <nd ref="482"/>
    <nd ref="483"/>
    <nd ref="484"/>
    <nd ref="485"/>
    <nd ref="486"/>
    <nd ref="487"/>
    <nd ref="488"/>
    <nd ref="489"/>
    <nd ref="490"/>
    <nd ref="491"/>
    <nd ref="492"/>
    <nd ref="493"/>
    <tag k="type" v="line_thin"/>
    <tag k="subtype" v="dashed"/>
  </way>
  <relation id="59" version="1">
    <member type="way" ref="59" role="centerline"/>
    <tag k="type" v="lanelet"/>
    <tag k="subtype" v="road"/>
    <tag k="location" v="urban"/>
    <tag k="one_way" v="yes"/>
    <tag k="lane_id" v="22_0"/>
    <tag k="edge_id" v="22"/>
  </relation>
  <node id="494" version="1" lat="0.0009558" lon="-0.0022675"/>
  <node id="495" version="1" lat="0.0009659" lon="-0.0019288"/>
  <node id="496" version="1" lat="0.0009666" lon="-0.0019033"/>
  <node id="497" version="1" lat="0.0009673" lon="-0.0018777"/>
  <node id="498" version="1" lat="0.0009677" lon="-0.0018646"/>
  <node id="499" version="1" lat="0.0009682" lon="-0.0018390"/>
  <node id="500" version="1" lat="0.0009687" lon="-0.0018134"/>
  <node id="501" version="1" lat="0.0009691" lon="-0.0017879"/>
  <node id="502" version="1" lat="0.0009695" lon="-0.0017624"/>
  <node id="503" version="1" lat="0.0009698" lon="-0.0017368"/>
  <node id="504" version="1" lat="0.0009700" lon="-0.0017113"/>
  <node id="505" version="1" lat="0.0009702" lon="-0.0016857"/>
  <way id="60" version="1">
    <nd ref="494"/>
    <nd ref="495"/>
    <nd ref="496"/>
    <nd ref="497"/>
    <nd ref="498"/>
    <nd ref="499"/>
    <nd ref="500"/>
    <nd ref="501"/>
    <nd ref="502"/>
    <nd ref="503"/>
    <nd ref="504"/>
    <nd ref="505"/>
    <tag k="type" v="line_thin"/>
    <tag k="subtype" v="dashed"/>
  </way>
  <relation id="60" version="1">
    <member type="way" ref="60" role="centerline"/>
    <tag k="type" v="lanelet"/>
    <tag k="subtype" v="road"/>
    <tag k="location" v="urban"/>
    <tag k="one_way" v="yes"/>
    <tag k="lane_id" v="22_1"/>
    <tag k="edge_id" v="22"/>
  </relation>
  <node id="506" version="1" lat="-0.0007291" lon="0.0028705"/>
  <node id="507" version="1" lat="-0.0015019" lon="0.0028716"/>
  <way id="61" version="1">
    <nd ref="506"/>
    <nd ref="507"/>
    <tag k="type" v="line_thin"/>
    <tag k="subtype" v="dashed"/>
  </way>
  <relation id="61" version="1">
    <member type="way" ref="61" role="centerline"/>
    <tag k="type" v="lanelet"/>
    <tag k="subtype" v="road"/>
    <tag k="location" v="urban"/>
    <tag k="one_way" v="yes"/>
    <tag k="lane_id" v="23_0"/>
    <tag k="edge_id" v="23"/>
  </relation>
  <node id="508" version="1" lat="-0.0007291" lon="0.0029347"/>
  <node id="509" version="1" lat="-0.0015018" lon="0.0029358"/>
  <way id="62" version="1">
    <nd ref="508"/>
    <nd ref="509"/>
    <tag k="type" v="line_thin"/>
    <tag k="subtype" v="dashed"/>
  </way>
  <relation id="62" version="1">
    <member type="way" ref="62" role="centerline"/>
    <tag k="type" v="lanelet"/>
    <tag k="subtype" v="road"/>
    <tag k="location" v="urban"/>
    <tag k="one_way" v="yes"/>
    <tag k="lane_id" v="23_1"/>
    <tag k="edge_id" v="23"/>
  </relation>
  <node id="510" version="1" lat="-0.0003944" lon="0.0028701"/>
  <node id="511" version="1" lat="-0.0005404" lon="0.0028704"/>
  <way id="63" version="1">
    <nd ref="510"/>
    <nd ref="511"/>
    <tag k="type" v="line_thin"/>
    <tag k="subtype" v="dashed"/>
  </way>
  <relation id="63" version="1">
    <member type="way" ref="63" role="centerline"/>
    <tag k="type" v="lanelet"/>
    <tag k="subtype" v="road"/>
    <tag k="location" v="urban"/>
    <tag k="one_way" v="yes"/>
    <tag k="lane_id" v="24_0"/>
    <tag k="edge_id" v="24"/>
  </relation>
  <node id="512" version="1" lat="-0.0003943" lon="0.0029343"/>
  <node id="513" version="1" lat="-0.0005404" lon="0.0029345"/>
  <way id="64" version="1">
    <nd ref="512"/>
    <nd ref="513"/>
    <tag k="type" v="line_thin"/>
    <tag k="subtype" v="dashed"/>
  </way>
  <relation id="64" version="1">
    <member type="way" ref="64" role="centerline"/>
    <tag k="type" v="lanelet"/>
    <tag k="subtype" v="road"/>
    <tag k="location" v="urban"/>
    <tag k="one_way" v="yes"/>
    <tag k="lane_id" v="24_1"/>
    <tag k="edge_id" v="24"/>
  </relation>
  <node id="514" version="1" lat="0.0008308" lon="0.0028684"/>
  <node id="515" version="1" lat="-0.0001923" lon="0.0028698"/>
  <way id="65" version="1">
    <nd ref="514"/>
    <nd ref="515"/>
    <tag k="type" v="line_thin"/>
    <tag k="subtype" v="dashed"/>
  </way>
  <relation id="65" version="1">
    <member type="way" ref="65" role="centerline"/>
    <tag k="type" v="lanelet"/>
    <tag k="subtype" v="road"/>
    <tag k="location" v="urban"/>
    <tag k="one_way" v="yes"/>
    <tag k="lane_id" v="25_0"/>
    <tag k="edge_id" v="25"/>
  </relation>
  <node id="516" version="1" lat="0.0008308" lon="0.0029326"/>
  <node id="517" version="1" lat="-0.0001923" lon="0.0029340"/>
  <way id="66" version="1">
    <nd ref="516"/>
    <nd ref="517"/>
    <tag k="type" v="line_thin"/>
    <tag k="subtype" v="dashed"/>
  </way>
  <relation id="66" version="1">
    <member type="way" ref="66" role="centerline"/>
    <tag k="type" v="lanelet"/>
    <tag k="subtype" v="road"/>
    <tag k="location" v="urban"/>
    <tag k="one_way" v="yes"/>
    <tag k="lane_id" v="25_1"/>
    <tag k="edge_id" v="25"/>
  </relation>
  <node id="518" version="1" lat="-0.0007106" lon="0.0002207"/>
  <node id="519" version="1" lat="-0.0015103" lon="0.0002242"/>
  <way id="67" version="1">
    <nd ref="518"/>
    <nd ref="519"/>
    <tag k="type" v="line_thin"/>
    <tag k="subtype" v="dashed"/>
  </way>
  <relation id="67" version="1">
    <member type="way" ref="67" role="centerline"/>
    <tag k="type" v="lanelet"/>
    <tag k="subtype" v="road"/>
    <tag k="location" v="urban"/>
    <tag k="one_way" v="yes"/>
    <tag k="lane_id" v="26_0"/>
    <tag k="edge_id" v="26"/>
  </relation>
  <node id="520" version="1" lat="-0.0007104" lon="0.0002849"/>
  <node id="521" version="1" lat="-0.0015102" lon="0.0002884"/>
  <way id="68" version="1">
    <nd ref="520"/>
    <nd ref="521"/>
    <tag k="type" v="line_thin"/>
    <tag k="subtype" v="dashed"/>
  </way>
  <relation id="68" version="1">
    <member type="way" ref="68" role="centerline"/>
    <tag k="type" v="lanelet"/>
    <tag k="subtype" v="road"/>
    <tag k="location" v="urban"/>
    <tag k="one_way" v="yes"/>
    <tag k="lane_id" v="26_1"/>
    <tag k="edge_id" v="26"/>
  </relation>
  <node id="522" version="1" lat="0.0008427" lon="0.0002138"/>
  <node id="523" version="1" lat="-0.0005191" lon="0.0002198"/>
  <way id="69" version="1">
    <nd ref="522"/>
    <nd ref="523"/>
    <tag k="type" v="line_thin"/>
    <tag k="subtype" v="dashed"/>
  </way>
  <relation id="69" version="1">
    <member type="way" ref="69" role="centerline"/>
    <tag k="type" v="lanelet"/>
    <tag k="subtype" v="road"/>
    <tag k="location" v="urban"/>
    <tag k="one_way" v="yes"/>
    <tag k="lane_id" v="27_0"/>
    <tag k="edge_id" v="27"/>
  </relation>
  <node id="524" version="1" lat="0.0008429" lon="0.0002780"/>
  <node id="525" version="1" lat="-0.0005190" lon="0.0002840"/>
  <way id="70" version="1">
    <nd ref="524"/>
    <nd ref="525"/>
    <tag k="type" v="line_thin"/>
    <tag k="subtype" v="dashed"/>
  </way>
  <relation id="70" version="1">
    <member type="way" ref="70" role="centerline"/>
    <tag k="type" v="lanelet"/>
    <tag k="subtype" v="road"/>
    <tag k="location" v="urban"/>
    <tag k="one_way" v="yes"/>
    <tag k="lane_id" v="27_1"/>
    <tag k="edge_id" v="27"/>
  </relation>
  <node id="526" version="1" lat="-0.0015827" lon="0.0001220"/>
  <node id="527" version="1" lat="-0.0015875" lon="-0.0012923"/>
  <node id="528" version="1" lat="-0.0015875" lon="-0.0013074"/>
  <node id="529" version="1" lat="-0.0015875" lon="-0.0013327"/>
  <node id="530" version="1" lat="-0.0015874" lon="-0.0013580"/>
  <node id="531" version="1" lat="-0.0015873" lon="-0.0013831"/>
  <node id="532" version="1" lat="-0.0015871" lon="-0.0014084"/>
  <node id="533" version="1" lat="-0.0015868" lon="-0.0014336"/>
  <node id="534" version="1" lat="-0.0015865" lon="-0.0014590"/>
  <way id="71" version="1">
    <nd ref="526"/>
    <nd ref="527"/>
    <nd ref="528"/>
    <nd ref="529"/>
    <nd ref="530"/>
    <nd ref="531"/>
    <nd ref="532"/>
    <nd ref="533"/>
    <nd ref="534"/>
    <tag k="type" v="line_thin"/>
    <tag k="subtype" v="dashed"/>
  </way>
  <relation id="71" version="1">
    <member type="way" ref="71" role="centerline"/>
    <tag k="type" v="lanelet"/>
    <tag k="subtype" v="road"/>
    <tag k="location" v="urban"/>
    <tag k="one_way" v="yes"/>
    <tag k="lane_id" v="3_0"/>
    <tag k="edge_id" v="3"/>
  </relation>
  <node id="535" version="1" lat="-0.0016277" lon="0.0001224"/>
  <node id="536" version="1" lat="-0.0016324" lon="-0.0012919"/>
  <node id="537" version="1" lat="-0.0016324" lon="-0.0013074"/>
  <node id="538" version="1" lat="-0.0016324" lon="-0.0013328"/>
  <node id="539" version="1" lat="-0.0016323" lon="-0.0013584"/>
  <node id="540" version="1" lat="-0.0016322" lon="-0.0013838"/>
  <node id="541" version="1" lat="-0.0016321" lon="-0.0014092"/>
  <node id="542" version="1" lat="-0.0016317" lon="-0.0014347"/>
  <node id="543" version="1" lat="-0.0016314" lon="-0.0014603"/>
  <way id="72" version="1">
    <nd ref="535"/>
    <nd ref="536"/>
    <nd ref="537"/>
    <nd ref="538"/>
    <nd ref="539"/>
    <nd ref="540"/>
    <nd ref="541"/>
    <nd ref="542"/>
    <nd ref="543"/>
    <tag k="type" v="line_thin"/>
    <tag k="subtype" v="dashed"/>
  </way>
  <relation id="72" version="1">
    <member type="way" ref="72" role="centerline"/>
    <tag k="type" v="lanelet"/>
    <tag k="subtype" v="road"/>
    <tag k="location" v="urban"/>
    <tag k="one_way" v="yes"/>
    <tag k="lane_id" v="3_1"/>
    <tag k="edge_id" v="3"/>
  </relation>
  <node id="544" version="1" lat="-0.0015809" lon="0.0006588"/>
  <node id="545" version="1" lat="-0.0015818" lon="0.0003915"/>
  <way id="73" version="1">
    <nd ref="544"/>
    <nd ref="545"/>
    <tag k="type" v="line_thin"/>
    <tag k="subtype" v="dashed"/>
  </way>
  <relation id="73" version="1">
    <member type="way" ref="73" role="centerline"/>
    <tag k="type" v="lanelet"/>
    <tag k="subtype" v="road"/>
    <tag k="location" v="urban"/>
    <tag k="one_way" v="yes"/>
    <tag k="lane_id" v="4_0"/>
    <tag k="edge_id" v="4"/>
  </relation>
  <node id="546" version="1" lat="-0.0016258" lon="0.0006591"/>
  <node id="547" version="1" lat="-0.0016268" lon="0.0003919"/>
  <way id="74" version="1">
    <nd ref="546"/>
    <nd ref="547"/>
    <tag k="type" v="line_thin"/>
    <tag k="subtype" v="dashed"/>
  </way>
  <relation id="74" version="1">
    <member type="way" ref="74" role="centerline"/>
    <tag k="type" v="lanelet"/>
    <tag k="subtype" v="road"/>
    <tag k="location" v="urban"/>
    <tag k="one_way" v="yes"/>
    <tag k="lane_id" v="4_1"/>
    <tag k="edge_id" v="4"/>
  </relation>
  <node id="548" version="1" lat="-0.0015778" lon="0.0015735"/>
  <node id="549" version="1" lat="-0.0015799" lon="0.0009283"/>
  <way id="75" version="1">
    <nd ref="548"/>
    <nd ref="549"/>
    <tag k="type" v="line_thin"/>
    <tag k="subtype" v="dashed"/>
  </way>
  <relation id="75" version="1">
    <member type="way" ref="75" role="centerline"/>
    <tag k="type" v="lanelet"/>
    <tag k="subtype" v="road"/>
    <tag k="location" v="urban"/>
    <tag k="one_way" v="yes"/>
    <tag k="lane_id" v="5_0"/>
    <tag k="edge_id" v="5"/>
  </relation>
  <node id="550" version="1" lat="-0.0016227" lon="0.0015738"/>
  <node id="551" version="1" lat="-0.0016249" lon="0.0009286"/>
  <way id="76" version="1">
    <nd ref="550"/>
    <nd ref="551"/>
    <tag k="type" v="line_thin"/>
    <tag k="subtype" v="dashed"/>
  </way>
  <relation id="76" version="1">
    <member type="way" ref="76" role="centerline"/>
    <tag k="type" v="lanelet"/>
    <tag k="subtype" v="road"/>
    <tag k="location" v="urban"/>
    <tag k="one_way" v="yes"/>
    <tag k="lane_id" v="5_1"/>
    <tag k="edge_id" v="5"/>
  </relation>
  <node id="552" version="1" lat="-0.0015738" lon="0.0027533"/>
  <node id="553" version="1" lat="-0.0015769" lon="0.0018429"/>
  <way id="77" version="1">
    <nd ref="552"/>
    <nd ref="553"/>
    <tag k="type" v="line_thin"/>
    <tag k="subtype" v="dashed"/>
  </way>
  <relation id="77" version="1">
    <member type="way" ref="77" role="centerline"/>
    <tag k="type" v="lanelet"/>
    <tag k="subtype" v="road"/>
    <tag k="location" v="urban"/>
    <tag k="one_way" v="yes"/>
    <tag k="lane_id" v="6_0"/>
    <tag k="edge_id" v="6"/>
  </relation>
  <node id="554" version="1" lat="-0.0016188" lon="0.0027537"/>
  <node id="555" version="1" lat="-0.0016218" lon="0.0018433"/>
  <way id="78" version="1">
    <nd ref="554"/>
    <nd ref="555"/>
    <tag k="type" v="line_thin"/>
    <tag k="subtype" v="dashed"/>
  </way>
  <relation id="78" version="1">
    <member type="way" ref="78" role="centerline"/>
    <tag k="type" v="lanelet"/>
    <tag k="subtype" v="road"/>
    <tag k="location" v="urban"/>
    <tag k="one_way" v="yes"/>
    <tag k="lane_id" v="6_1"/>
    <tag k="edge_id" v="6"/>
  </relation>
  <node id="556" version="1" lat="-0.0005061" lon="-0.0015416"/>
  <node id="557" version="1" lat="0.0008520" lon="-0.0015179"/>
  <way id="79" version="1">
    <nd ref="556"/>
    <nd ref="557"/>
    <tag k="type" v="line_thin"/>
    <tag k="subtype" v="dashed"/>
  </way>
  <relation id="79" version="1">
    <member type="way" ref="79" role="centerline"/>
    <tag k="type" v="lanelet"/>
    <tag k="subtype" v="road"/>
    <tag k="location" v="urban"/>
    <tag k="one_way" v="yes"/>
    <tag k="lane_id" v="7_0"/>
    <tag k="edge_id" v="7"/>
  </relation>
  <node id="558" version="1" lat="-0.0005056" lon="-0.0016058"/>
  <node id="559" version="1" lat="0.0008525" lon="-0.0015821"/>
  <way id="80" version="1">
    <nd ref="558"/>
    <nd ref="559"/>
    <tag k="type" v="line_thin"/>
    <tag k="subtype" v="dashed"/>
  </way>
  <relation id="80" version="1">
    <member type="way" ref="80" role="centerline"/>
    <tag k="type" v="lanelet"/>
    <tag k="subtype" v="road"/>
    <tag k="location" v="urban"/>
    <tag k="one_way" v="yes"/>
    <tag k="lane_id" v="7_1"/>
    <tag k="edge_id" v="7"/>
  </relation>
  <node id="560" version="1" lat="-0.0015079" lon="-0.0015591"/>
  <node id="561" version="1" lat="-0.0006948" lon="-0.0015450"/>
  <way id="81" version="1">
    <nd ref="560"/>
    <nd ref="561"/>
    <tag k="type" v="line_thin"/>
    <tag k="subtype" v="dashed"/>
  </way>
  <relation id="81" version="1">
    <member type="way" ref="81" role="centerline"/>
    <tag k="type" v="lanelet"/>
    <tag k="subtype" v="road"/>
    <tag k="location" v="urban"/>
    <tag k="one_way" v="yes"/>
    <tag k="lane_id" v="8_0"/>
    <tag k="edge_id" v="8"/>
  </relation>
  <node id="562" version="1" lat="-0.0015073" lon="-0.0016232"/>
  <node id="563" version="1" lat="-0.0006942" lon="-0.0016091"/>
  <way id="82" version="1">
    <nd ref="562"/>
    <nd ref="563"/>
    <tag k="type" v="line_thin"/>
    <tag k="subtype" v="dashed"/>
  </way>
  <relation id="82" version="1">
    <member type="way" ref="82" role="centerline"/>
    <tag k="type" v="lanelet"/>
    <tag k="subtype" v="road"/>
    <tag k="location" v="urban"/>
    <tag k="one_way" v="yes"/>
    <tag k="lane_id" v="8_1"/>
    <tag k="edge_id" v="8"/>
  </relation>
  <node id="564" version="1" lat="-0.0006499" lon="0.0018485"/>
  <node id="565" version="1" lat="-0.0006573" lon="0.0027658"/>
  <way id="83" version="1">
    <nd ref="564"/>
    <nd ref="565"/>
    <tag k="type" v="line_thin"/>
    <tag k="subtype" v="dashed"/>
  </way>
  <relation id="83" version="1">
    <member type="way" ref="83" role="centerline"/>
    <tag k="type" v="lanelet"/>
    <tag k="subtype" v="road"/>
    <tag k="location" v="urban"/>
    <tag k="one_way" v="yes"/>
    <tag k="lane_id" v="9_0"/>
    <tag k="edge_id" v="9"/>
  </relation>
  <node id="566" version="1" lat="-0.0006051" lon="0.0018492"/>
  <node id="567" version="1" lat="-0.0006124" lon="0.0027664"/>
  <way id="84" version="1">
    <nd ref="566"/>
    <nd ref="567"/>
    <tag k="type" v="line_thin"/>
    <tag k="subtype" v="dashed"/>
  </way>
  <relation id="84" version="1">
    <member type="way" ref="84" role="centerline"/>
    <tag k="type" v="lanelet"/>
    <tag k="subtype" v="road"/>
    <tag k="location" v="urban"/>
    <tag k="one_way" v="yes"/>
    <tag k="lane_id" v="9_1"/>
    <tag k="edge_id" v="9"/>
  </relation>
</osm>